NORAD_CAT_ID,OBJECT_NAME,OBJECT_TYPE,EPOCH,MEAN_MOTION,ECCENTRICITY,INCLINATION,RA_OF_ASC_NODE,ARG_OF_PERICENTER,MEAN_ANOMALY,BSTAR,MEAN_MOTION_DOT,MEAN_MOTION_DDOT,TLE_LINE0,TLE_LINE1,TLE_LINE2,SEMIMAJOR_AXIS,PERIOD,APOGEE,PERIGEE,DECAYED
54074.0,STARLINK-5192,PAYLOAD,2022-12-19 16:35:56,15.08851128,0.0001975,53.2148,222.9907,52.9614,307.1559,0.00045184,6.912e-05,0.0,0 STARLINK-5192,1 54074U 22136Z   22353.69162351  .00006912  00000-0  45184-3 0  9995,2 54074  53.2148 222.9907 0001975  52.9614 307.1559 15.08851128  9317,6917.846,95.437,541.078,538.345,0.0
54074.0,STARLINK-5192,PAYLOAD,2022-12-20 10:05:09,15.08863213,0.0001933,53.2143,219.7198,53.7804,306.3367,0.00057275,8.845e-05,0.0,0 STARLINK-5192,1 54074U 22136Z   22354.42025443  .00008845  00000-0  57275-3 0  9998,2 54074  53.2143 219.7198 0001933  53.7804 306.3367 15.08863213  9420,6917.809,95.436,541.012,538.337,0.0
54074.0,STARLINK-5192,PAYLOAD,2022-12-20 19:37:28,15.08850344,0.0001735,53.2136,217.9342,61.7831,298.3336,3.2703e-05,2.33e-06,0.0,0 STARLINK-5192,1 54074U 22136Z   22354.81769197  .00000233  00000-0  32703-4 0  9995,2 54074  53.2136 217.9342 0001735  61.7831 298.3336 15.08850344  9968,6917.849,95.437,540.914,538.514,0.0
54074.0,STARLINK-5192,PAYLOAD,2022-12-20 22:48:15,15.08844022,0.0001828,53.2145,217.3409,53.0648,307.0512,-3.9116e-05,-9.11e-06,0.0,0 STARLINK-5192,1 54074U 22136Z   22354.95017493 -.00000911  00000-0 -39116-4 0  9995,2 54074  53.2145 217.3409 0001828  53.0648 307.0512 15.08844022  9981,6917.868,95.437,540.998,538.469,0.0
54074.0,STARLINK-5192,PAYLOAD,2022-12-21 08:20:34,15.08835549,0.0001973,53.2141,215.557,50.5684,309.5483,-0.00010728,-1.995e-05,0.0,0 STARLINK-5192,1 54074U 22136Z   22355.34762056 -.00001995  00000-0 -10728-3 0  9991,2 54074  53.2141 215.5570 0001973  50.5684 309.5483 15.08835549  9561,6917.894,95.438,541.124,538.394,0.0
54074.0,STARLINK-5192,PAYLOAD,2022-12-22 08:11:21,15.08840399,0.0001905,53.2145,211.0962,51.938,308.1784,-1.451e-05,-5.19e-06,0.0,0 STARLINK-5192,1 54074U 22136Z   22356.34122253 -.00000519  00000-0 -14510-4 0  9996,2 54074  53.2145 211.0962 0001905  51.9380 308.1784 15.08840399  9719,6917.879,95.438,541.062,538.4259999999998,0.0
54074.0,STARLINK-5192,PAYLOAD,2022-12-22 20:54:26,15.08841799,0.0001916,53.2145,208.7172,51.6417,308.4747,0.00011687,1.572e-05,0.0,0 STARLINK-5192,1 54074U 22136Z   22356.87114314  .00001572  00000-0  11687-3 0  9992,2 54074  53.2145 208.7172 0001916  51.6417 308.4747 15.08841799  9790,6917.875,95.437,541.065,538.414,0.0
54074.0,STARLINK-5192,PAYLOAD,2022-12-22 22:29:49,15.08839823,0.0001887,53.2155,208.4196,51.9668,308.1495,0.00016424,2.327e-05,0.0,0 STARLINK-5192,1 54074U 22136Z   22356.93738092  .00002327  00000-0  16424-3 0  9997,2 54074  53.2155 208.4196 0001887  51.9668 308.1495 15.08839823 10280,6917.880999999999,95.438,541.0509999999998,538.441,0.0
54074.0,STARLINK-5192,PAYLOAD,2022-12-23 01:40:36,15.08841475,0.0001921,53.2144,207.8251,51.462,308.6545,0.0002489,3.676e-05,0.0,0 STARLINK-5192,1 54074U 22136Z   22357.06986411  .00003676  00000-0  24890-3 0  9996,2 54074  53.2144 207.8251 0001921  51.4620 308.6545 15.08841475  9820,6917.876,95.437,541.07,538.4119999999998,0.0
54074.0,STARLINK-5192,PAYLOAD,2022-12-23 19:09:51,15.08829702,0.0001892,53.2155,204.5539,53.1392,306.9773,0.00010921,1.4499999999999992e-05,0.0,0 STARLINK-5192,1 54074U 22136Z   22357.79851392  .00001450  00000-0  10921-3 0  9993,2 54074  53.2155 204.5539 0001892  53.1392 306.9773 15.08829702  9932,6917.9119999999975,95.438,541.086,538.4680000000002,0.0
54074.0,STARLINK-5192,PAYLOAD,2022-12-23 23:56:00,15.08831772,0.0001895,53.2156,203.6614,53.733,306.3837,8.416299999999999e-05,1.051e-05,0.0,0 STARLINK-5192,1 54074U 22136Z   22357.99723369  .00001051  00000-0  84163-4 0  9994,2 54074  53.2156 203.6614 0001895  53.7330 306.3837 15.08831772 10441,6917.906,95.438,541.081,538.46,0.0
54074.0,STARLINK-5192,PAYLOAD,2022-12-24 20:36:01,15.08841674,0.000189,53.2155,199.7961,53.7821,306.3345,5.9764e-05,6.63e-06,0.0,0 STARLINK-5192,1 54074U 22136Z   22358.85834929  .00000663  00000-0  59764-4 0  9992,2 54074  53.2155 199.7961 0001890  53.7821 306.3345 15.08841674 10570,6917.875,95.437,541.048,538.433,0.0
54074.0,STARLINK-5192,PAYLOAD,2022-12-25 06:08:19,15.08844693,0.0001908,53.2154,198.012,53.3649,306.7518,7.1969e-05,8.58e-06,0.0,0 STARLINK-5192,1 54074U 22136Z   22359.25578648  .00000858  00000-0  71969-4 0  9997,2 54074  53.2154 198.0120 0001908  53.3649 306.7518 15.08844693 10156,6917.866,95.437,541.0509999999998,538.411,0.0
54074.0,STARLINK-5192,PAYLOAD,2022-12-25 20:26:48,15.08843762,0.0001886,53.2154,195.3355,53.159,306.9575,0.00014683,2.05e-05,0.0,0 STARLINK-5192,1 54074U 22136Z   22359.85194496  .00002050  00000-0  14683-3 0  9993,2 54074  53.2154 195.3355 0001886  53.1590 306.9575 15.08843762 10245,6917.869000000002,95.437,541.039,538.429,0.0
54074.0,STARLINK-5192,PAYLOAD,2022-12-25 23:37:34,15.08844625,0.0001901,53.2153,194.7408,53.0173,307.0993,0.00015044,2.107e-05,0.0,0 STARLINK-5192,1 54074U 22136Z   22359.98442426  .00002107  00000-0  15044-3 0  9991,2 54074  53.2153 194.7408 0001901  53.0173 307.0993 15.08844625 10740,6917.866,95.437,541.0459999999998,538.4159999999998,0.0
54074.0,STARLINK-5192,PAYLOAD,2022-12-26 12:20:40,15.08837799,0.0002007,53.2151,192.3615,52.8735,307.244,6.6498e-05,7.699999999999999e-06,0.0,0 STARLINK-5192,1 54074U 22136Z   22360.51435361  .00000770  00000-0  66498-4 0  9996,2 54074  53.2151 192.3615 0002007  52.8735 307.2440 15.08837799 10340,6917.887,95.438,541.141,538.364,0.0
54074.0,STARLINK-5192,PAYLOAD,2022-12-26 13:56:03,15.08838014,0.0001927,53.2151,192.0638,53.563,306.5540000000001,2.2979e-05,7.8e-07,0.0,0 STARLINK-5192,1 54074U 22136Z   22360.58059446  .00000078  00000-0  22979-4 0  9996,2 54074  53.2151 192.0638 0001927  53.5630 306.5540 15.08838014 10832,6917.886,95.438,541.085,538.418,0.0
54074.0,STARLINK-5192,PAYLOAD,2022-12-27 05:49:54,15.08841092,0.0001992,53.2153,189.0904,53.609,306.5086,4.2054e-05,3.81e-06,0.0,0 STARLINK-5192,1 54074U 22136Z   22361.24299232  .00000381  00000-0  42054-4 0  9992,2 54074  53.2153 189.0904 0001992  53.6090 306.5086 15.08841092 10452,6917.877,95.437,541.12,538.364,0.0
54074.0,STARLINK-5192,PAYLOAD,2022-12-27 20:08:22,15.08846568,0.0001937,53.2155,186.4141,55.9961,304.1214,5.8307e-05,6.4e-06,0.0,0 STARLINK-5192,1 54074U 22136Z   22361.83914782  .00000640  00000-0  58307-4 0  9997,2 54074  53.2155 186.4141 0001937  55.9961 304.1214 15.08846568 10549,6917.86,95.437,541.065,538.385,0.0
54074.0,STARLINK-5192,PAYLOAD,2022-12-28 15:12:59,15.08845769,0.0001958,53.2143,182.8453,53.3681,306.7491,0.00020959,3.05e-05,0.0,0 STARLINK-5192,1 54074U 22136Z   22362.63402622  .00003050  00000-0  20959-3 0  9990,2 54074  53.2143 182.8453 0001958  53.3681 306.7491 15.08845769 10666,6917.863,95.437,541.082,538.373,0.0
54074.0,STARLINK-5192,PAYLOAD,2022-12-29 05:31:28,15.08842704,0.0002025,53.2144,180.1687,53.1064,307.0114,0.0001044999999999,1.375e-05,0.0,0 STARLINK-5192,1 54074U 22136Z   22363.23018697  .00001375  00000-0  10450-3 0  9995,2 54074  53.2144 180.1687 0002025  53.1064 307.0114 15.08842704 11232,6917.871999999999,95.437,541.138,538.336,0.0
54074.0,STARLINK-5192,PAYLOAD,2022-12-29 11:53:00,15.0884198,0.0002201,53.2137,178.9801,57.1367,302.9837,6.5221e-05,7.4999999999999985e-06,0.0,0 STARLINK-5192,1 54074U 22136Z   22363.49514310  .00000750  00000-0  65221-4 0  9999,2 54074  53.2137 178.9801 0002201  57.1367 302.9837 15.08841980 10794,6917.874,95.437,541.262,538.217,0.0
54074.0,STARLINK-5192,PAYLOAD,2022-12-30 11:43:47,15.08847547,0.0001918,53.2151,174.5175,62.0763,298.0423,5.6255e-05,6.07e-06,0.0,0 STARLINK-5192,1 54074U 22136Z   22364.48874328  .00000607  00000-0  56255-4 0  9995,2 54074  53.2151 174.5175 0001918  62.0763 298.0423 15.08847547 11427,6917.857,95.437,541.049,538.395,0.0
54074.0,STARLINK-5192,PAYLOAD,2022-12-30 21:16:05,15.08852113,0.0001972,53.2149,172.7342,57.7278,302.3905,9.0245e-05,1.149e-05,0.0,0 STARLINK-5192,1 54074U 22136Z   22364.88617865  .00001149  00000-0  90245-4 0  9999,2 54074  53.2149 172.7342 0001972  57.7278 302.3905 15.08852113 11005,6917.843000000003,95.437,541.073,538.344,0.0
54074.0,STARLINK-5192,PAYLOAD,2022-12-31 17:56:06,15.08845456,0.0002008,53.2142,168.8686,54.9847,305.1334,0.00015349,2.156e-05,0.0,0 STARLINK-5192,1 54074U 22136Z   22365.74730048  .00002156  00000-0  15349-3 0  9994,2 54074  53.2142 168.8686 0002008  54.9847 305.1334 15.08845456 11130,6917.864000000001,95.437,541.118,538.34,0.0
54074.0,STARLINK-5192,PAYLOAD,2023-01-01 11:25:21,15.08838149,0.000204,53.2146,165.5975,54.0198,306.0983,-9.3058e-05,-1.769e-05,0.0,0 STARLINK-5192,1 54074U 22136Z   23001.47594241 -.00001769  00000-0 -93058-4 0  9990,2 54074  53.2146 165.5975 0002040  54.0198 306.0983 15.08838149 11721,6917.886,95.438,541.1619999999998,538.34,0.0
54074.0,STARLINK-5192,PAYLOAD,2023-01-01 17:46:54,15.08840548,0.0002029999999999,53.2156,164.4082,54.552,305.5661,-1.1336e-05,-4.69e-06,0.0,0 STARLINK-5192,1 54074U 22136Z   23001.74090408 -.00000469  00000-0 -11336-4 0  9991,2 54074  53.2156 164.4082 0002030  54.5520 305.5661 15.08840548 11286,6917.879,95.438,541.148,538.339,0.0
54074.0,STARLINK-5192,PAYLOAD,2023-01-02 11:16:08,15.08836893,0.0001927,53.2176,161.1383,59.26300000000001,300.8552,5.4216e-05,5.75e-06,0.0,0 STARLINK-5192,1 54074U 22136Z   23002.46954361  .00000575  00000-0  54216-4 0  9998,2 54074  53.2176 161.1383 0001927  59.2630 300.8552 15.08836893 11391,6917.89,95.438,541.0880000000002,538.422,0.0
54074.0,STARLINK-5192,PAYLOAD,2023-01-02 19:13:04,15.08833553,0.0001939,53.2172,159.6512,54.9142,305.2032,7.2772e-07,-2.77e-06,0.0,0 STARLINK-5192,1 54074U 22136Z   23002.80074830 -.00000277  00000-0  72772-6 0  9999,2 54074  53.2172 159.6512 0001939  54.9142 305.2032 15.08833553 11927,6917.9,95.438,541.106,538.424,0.0
